start=new Date('2022-09-02T00:00:00.000Z').valueOf();
sats=[{"CLASSIFICATION_TYPE":"U","ECCENTRICITY":"0.00016810","BSTAR":"0.00003053300000","RCS_SIZE":"LARGE","ELEMENT_SET_NO":"999","PERIAPSIS":"538.628","FILE":"3554009","MEAN_ELEMENT_THEORY":"SGP4","MEAN_MOTION_DOT":"0.00000198","OBJECT_ID":"2021-104AQ","OBJECT_NAME":"STARLINK-3099","DECAY_DATE":null,"TLE_LINE1":"1 49446U 21104AQ  22244.61957614  .00000198  00000-0  30533-4 0  9994","ARG_OF_PERICENTER":"65.2025","REV_AT_EPOCH":"4491","SITE":"AFETR","NORAD_CAT_ID":"49446","SEMIMAJOR_AXIS":"6917.926","MEAN_ANOMALY":"294.9142","MEAN_MOTION":"15.08825241","PERIOD":"95.438","CENTER_NAME":"EARTH","EPHEMERIS_TYPE":"0","APOAPSIS":"540.953","INCLINATION":"53.2157","EPOCH":"2022-09-01T14:52:11.378496","OBJECT_TYPE":"PAYLOAD","LAUNCH_DATE":"2021-11-13","TIME_SYSTEM":"UTC","GP_ID":"211505388","RA_OF_ASC_NODE":"218.0326","REF_FRAME":"TEME","COUNTRY_CODE":"US","MEAN_MOTION_DDOT":"0.0000000000000","TLE_LINE2":"2 49446  53.2157 218.0326 0001681  65.2025 294.9142 15.08825241 44915"},{"PERIAPSIS":"538.334","FILE":"3554009","MEAN_ELEMENT_THEORY":"SGP4","OBJECT_ID":"2021-104AR","MEAN_MOTION_DOT":"0.00000471","OBJECT_NAME":"STARLINK-3115","DECAY_DATE":null,"ARG_OF_PERICENTER":"65.5968","TLE_LINE1":"1 49447U 21104AR  22244.69593112  .00000471  00000-0  47727-4 0  9999","SITE":"AFETR","REV_AT_EPOCH":"4478","CLASSIFICATION_TYPE":"U","ECCENTRICITY":"0.00020410","BSTAR":"0.00004772700000","RCS_SIZE":"LARGE","ELEMENT_SET_NO":"999","OBJECT_TYPE":"PAYLOAD","LAUNCH_DATE":"2021-11-13","TIME_SYSTEM":"UTC","GP_ID":"211505138","RA_OF_ASC_NODE":"227.6917","REF_FRAME":"TEME","COUNTRY_CODE":"US","MEAN_MOTION_DDOT":"0.0000000000000","TLE_LINE2":"2 49447  53.2157 227.6917 0002041  65.5968 294.5237 15.08839812 44783","NORAD_CAT_ID":"49447","SEMIMAJOR_AXIS":"6917.881","MEAN_ANOMALY":"294.5237","MEAN_MOTION":"15.08839812","PERIOD":"95.438","CENTER_NAME":"EARTH","EPHEMERIS_TYPE":"0","APOAPSIS":"541.158","INCLINATION":"53.2157","EPOCH":"2022-09-01T16:42:08.448768"},{"OBJECT_NAME":"STARLINK-3097","TLE_LINE1":"1 49448U 21104AS  22244.37576272  .00000772  00000-0  66600-4 0  9998","ARG_OF_PERICENTER":"53.9081","SITE":"AFETR","REV_AT_EPOCH":"4473","DECAY_DATE":null,"OBJECT_ID":"2021-104AS","MEAN_MOTION_DOT":"0.00000772","PERIAPSIS":"538.305","MEAN_ELEMENT_THEORY":"SGP4","FILE":"3553574","ELEMENT_SET_NO":"999","BSTAR":"0.00006660000000","ECCENTRICITY":"0.00020970","CLASSIFICATION_TYPE":"U","RCS_SIZE":"LARGE","RA_OF_ASC_NODE":"229.1238","REF_FRAME":"TEME","COUNTRY_CODE":"US","TLE_LINE2":"2 49448  53.2154 229.1238 0002097  53.9081 306.2105 15.08836515 44739","MEAN_MOTION_DDOT":"0.0000000000000","OBJECT_TYPE":"PAYLOAD","GP_ID":"211470204","LAUNCH_DATE":"2021-11-13","TIME_SYSTEM":"UTC","CENTER_NAME":"EARTH","EPHEMERIS_TYPE":"0","PERIOD":"95.438","EPOCH":"2022-09-01T09:01:05.899008","INCLINATION":"53.2154","APOAPSIS":"541.207","SEMIMAJOR_AXIS":"6917.891","NORAD_CAT_ID":"49448","MEAN_ANOMALY":"306.2105","MEAN_MOTION":"15.08836515"},{"ELEMENT_SET_NO":"999","RCS_SIZE":"LARGE","BSTAR":"0.00011398000000","ECCENTRICITY":"0.00019130","CLASSIFICATION_TYPE":"U","TLE_LINE1":"1 49449U 21104AT  22244.36104044  .00001527  00000-0  11398-3 0  9994","ARG_OF_PERICENTER":"53.3948","SITE":"AFETR","REV_AT_EPOCH":"4473","DECAY_DATE":null,"OBJECT_NAME":"STARLINK-3137","OBJECT_ID":"2021-104AT","MEAN_MOTION_DOT":"0.00001527","PERIAPSIS":"538.405","FILE":"3553574","MEAN_ELEMENT_THEORY":"SGP4","INCLINATION":"53.2151","EPOCH":"2022-09-01T08:39:53.894016","APOAPSIS":"541.052","CENTER_NAME":"EARTH","EPHEMERIS_TYPE":"0","PERIOD":"95.437","MEAN_ANOMALY":"306.7220","MEAN_MOTION":"15.08845438","SEMIMAJOR_AXIS":"6917.864","NORAD_CAT_ID":"49449","TLE_LINE2":"2 49449  53.2151 229.1955 0001913  53.3948 306.7220 15.08845438 44732","MEAN_MOTION_DDOT":"0.0000000000000","RA_OF_ASC_NODE":"229.1955","REF_FRAME":"TEME","COUNTRY_CODE":"US","GP_ID":"211468957","LAUNCH_DATE":"2021-11-13","TIME_SYSTEM":"UTC","OBJECT_TYPE":"PAYLOAD"},{"TIME_SYSTEM":"UTC","LAUNCH_DATE":"2021-11-13","GP_ID":"211469207","OBJECT_TYPE":"PAYLOAD","MEAN_MOTION_DDOT":"0.0000000000000","TLE_LINE2":"2 49450  53.2159 229.1512 0002139  57.2522 302.8676 15.08834468 44994","COUNTRY_CODE":"US","RA_OF_ASC_NODE":"229.1512","REF_FRAME":"TEME","MEAN_MOTION":"15.08834468","MEAN_ANOMALY":"302.8676","NORAD_CAT_ID":"49450","SEMIMAJOR_AXIS":"6917.897","APOAPSIS":"541.242","EPOCH":"2022-09-01T08:50:31.371360","INCLINATION":"53.2159","PERIOD":"95.438","EPHEMERIS_TYPE":"0","CENTER_NAME":"EARTH","FILE":"3553574","MEAN_ELEMENT_THEORY":"SGP4","PERIAPSIS":"538.283","OBJECT_ID":"2021-104AU","MEAN_MOTION_DOT":"-0.00000520","DECAY_DATE":null,"SITE":"AFETR","REV_AT_EPOCH":"4499","TLE_LINE1":"1 49450U 21104AU  22244.36841865 -.00000520  00000-0 -14536-4 0  9997","ARG_OF_PERICENTER":"57.2522","OBJECT_NAME":"STARLINK-3127","RCS_SIZE":"LARGE","CLASSIFICATION_TYPE":"U","ECCENTRICITY":"0.00021390","BSTAR":"-0.00001453600000","ELEMENT_SET_NO":"999"},{"OBJECT_NAME":"STARLINK-3125","DECAY_DATE":null,"TLE_LINE1":"1 49451U 21104AV  22244.35736795 -.00000044  00000-0  15336-4 0  9991","ARG_OF_PERICENTER":"51.7551","SITE":"AFETR","REV_AT_EPOCH":"4473","PERIAPSIS":"538.167","MEAN_ELEMENT_THEORY":"SGP4","FILE":"3553574","OBJECT_ID":"2021-104AV","MEAN_MOTION_DOT":"-0.00000044","ELEMENT_SET_NO":"999","CLASSIFICATION_TYPE":"U","ECCENTRICITY":"0.00022470","BSTAR":"0.00001533600000","RCS_SIZE":"LARGE","RA_OF_ASC_NODE":"229.2095","REF_FRAME":"TEME","COUNTRY_CODE":"US","MEAN_MOTION_DDOT":"0.0000000000000","TLE_LINE2":"2 49451  53.2158 229.2095 0002247  51.7551 308.3643 15.08847818 44732","OBJECT_TYPE":"PAYLOAD","LAUNCH_DATE":"2021-11-13","TIME_SYSTEM":"UTC","GP_ID":"211469958","PERIOD":"95.437","CENTER_NAME":"EARTH","EPHEMERIS_TYPE":"0","APOAPSIS":"541.276","EPOCH":"2022-09-01T08:34:36.590880","INCLINATION":"53.2158","NORAD_CAT_ID":"49451","SEMIMAJOR_AXIS":"6917.856","MEAN_ANOMALY":"308.3643","MEAN_MOTION":"15.08847818"},{"ELEMENT_SET_NO":"999","RCS_SIZE":"LARGE","BSTAR":"0.00003831900000","ECCENTRICITY":"0.00018930","CLASSIFICATION_TYPE":"U","TLE_LINE1":"1 49452U 21104AW  22244.27735767  .00000322  00000-0  38319-4 0  9995","ARG_OF_PERICENTER":"57.9418","SITE":"AFETR","REV_AT_EPOCH":"4472","DECAY_DATE":null,"OBJECT_NAME":"STARLINK-3150","MEAN_MOTION_DOT":"0.00000322","OBJECT_ID":"2021-104AW","PERIAPSIS":"538.412","MEAN_ELEMENT_THEORY":"SGP4","FILE":"3553574","EPOCH":"2022-09-01T06:39:23.702688","INCLINATION":"53.2175","APOAPSIS":"541.031","CENTER_NAME":"EARTH","EPHEMERIS_TYPE":"0","PERIOD":"95.437","MEAN_ANOMALY":"302.1758","MEAN_MOTION":"15.08847813","SEMIMAJOR_AXIS":"6917.857","NORAD_CAT_ID":"49452","TLE_LINE2":"2 49452  53.2175 229.5614 0001893  57.9418 302.1758 15.08847813 44721","MEAN_MOTION_DDOT":"0.0000000000000","REF_FRAME":"TEME","RA_OF_ASC_NODE":"229.5614","COUNTRY_CODE":"US","GP_ID":"211469705","LAUNCH_DATE":"2021-11-13","TIME_SYSTEM":"UTC","OBJECT_TYPE":"PAYLOAD"},{"COUNTRY_CODE":"US","RA_OF_ASC_NODE":"227.7540","REF_FRAME":"TEME","TLE_LINE2":"2 49453  53.2162 227.7540 0002002  54.0791 306.0387 15.08850469 44789","MEAN_MOTION_DDOT":"0.0000000000000","OBJECT_TYPE":"PAYLOAD","GP_ID":"211504137","TIME_SYSTEM":"UTC","LAUNCH_DATE":"2021-11-13","EPHEMERIS_TYPE":"0","CENTER_NAME":"EARTH","PERIOD":"95.437","INCLINATION":"53.2162","EPOCH":"2022-09-01T16:20:55.770720","APOAPSIS":"541.098","SEMIMAJOR_AXIS":"6917.848","NORAD_CAT_ID":"49453","MEAN_MOTION":"15.08850469","MEAN_ANOMALY":"306.0387","OBJECT_NAME":"STARLINK-3129","REV_AT_EPOCH":"4478","SITE":"AFETR","TLE_LINE1":"1 49453U 21104AX  22244.68120105  .00002359  00000-0  16623-3 0  9990","ARG_OF_PERICENTER":"54.0791","DECAY_DATE":null,"MEAN_MOTION_DOT":"0.00002359","OBJECT_ID":"2021-104AX","MEAN_ELEMENT_THEORY":"SGP4","FILE":"3554009","PERIAPSIS":"538.328","ELEMENT_SET_NO":"999","ECCENTRICITY":"0.00020020","BSTAR":"0.00016623000000","CLASSIFICATION_TYPE":"U","RCS_SIZE":"LARGE"},{"PERIAPSIS":"538.641","FILE":"3554009","MEAN_ELEMENT_THEORY":"SGP4","MEAN_MOTION_DOT":"-0.00000386","OBJECT_ID":"2021-104AY","DECAY_DATE":null,"ARG_OF_PERICENTER":"67.7515","TLE_LINE1":"1 49454U 21104AY  22244.68489146 -.00000386  00000-0 -61851-5 0  9999","REV_AT_EPOCH":"4478","SITE":"AFETR","OBJECT_NAME":"STARLINK-3160","RCS_SIZE":"LARGE","CLASSIFICATION_TYPE":"U","BSTAR":"-0.00000618510000","ECCENTRICITY":"0.00016190","ELEMENT_SET_NO":"999","LAUNCH_DATE":"2021-11-13","TIME_SYSTEM":"UTC","GP_ID":"211505389","OBJECT_TYPE":"PAYLOAD","MEAN_MOTION_DDOT":"0.0000000000000","TLE_LINE2":"2 49454  53.2151 227.7435 0001619  67.7515 292.3649 15.08834839 44780","RA_OF_ASC_NODE":"227.7435","REF_FRAME":"TEME","COUNTRY_CODE":"US","MEAN_ANOMALY":"292.3649","MEAN_MOTION":"15.08834839","NORAD_CAT_ID":"49454","SEMIMAJOR_AXIS":"6917.896","APOAPSIS":"540.881","INCLINATION":"53.2151","EPOCH":"2022-09-01T16:26:14.622144","PERIOD":"95.438","CENTER_NAME":"EARTH","EPHEMERIS_TYPE":"0"},{"TIME_SYSTEM":"UTC","LAUNCH_DATE":"2021-11-13","GP_ID":"211505139","OBJECT_TYPE":"PAYLOAD","MEAN_MOTION_DDOT":"0.0000000000000","TLE_LINE2":"2 49455  53.2169 227.7959 0002470  45.6742 314.4452 15.08830746 44785","COUNTRY_CODE":"US","RA_OF_ASC_NODE":"227.7959","REF_FRAME":"TEME","MEAN_MOTION":"15.08830746","MEAN_ANOMALY":"314.4452","NORAD_CAT_ID":"49455","SEMIMAJOR_AXIS":"6917.909","APOAPSIS":"541.482","INCLINATION":"53.2169","EPOCH":"2022-09-01T16:05:03.494976","PERIOD":"95.438","EPHEMERIS_TYPE":"0","CENTER_NAME":"EARTH","MEAN_ELEMENT_THEORY":"SGP4","FILE":"3554009","PERIAPSIS":"538.065","OBJECT_ID":"2021-104AZ","MEAN_MOTION_DOT":"0.00000038","DECAY_DATE":null,"REV_AT_EPOCH":"4478","SITE":"AFETR","TLE_LINE1":"1 49455U 21104AZ  22244.67017934  .00000038  00000-0  20488-4 0  9993","ARG_OF_PERICENTER":"45.6742","OBJECT_NAME":"STARLINK-3145","RCS_SIZE":"LARGE","CLASSIFICATION_TYPE":"U","BSTAR":"0.00002048800000","ECCENTRICITY":"0.00024700","ELEMENT_SET_NO":"999"}];
